[{"OBJECT_NAME":"STARLINK-3356","OBJECT_ID":"2022-005AF","EPOCH":"2026-03-09T20:43:46.373952","MEAN_MOTION":15.08834312,"ECCENTRICITY":0.00013171,"INCLINATION":53.2176,"RA_OF_ASC_NODE":298.3385,"ARG_OF_PERICENTER":89.6559,"MEAN_ANOMALY":270.4584,"EPHEMERIS_TYPE":0,"CLASSIFICATION_TYPE":"U","NORAD_CAT_ID":51133,"ELEMENT_SET_NO":999,"REV_AT_EPOCH":22875,"BSTAR":-8.75826e-6,"MEAN_MOTION_DOT":-4.27e-6,"MEAN_MOTION_DDOT":0},{"OBJECT_NAME":"COSMOS 2251 DEB","OBJECT_ID":"1993-036AJC","EPOCH":"2026-03-07T22:08:36.037248","MEAN_MOTION":15.09712263,"ECCENTRICITY":0.00171889,"INCLINATION":73.9945,"RA_OF_ASC_NODE":155.7464,"ARG_OF_PERICENTER":279.7001,"MEAN_ANOMALY":80.2249,"EPHEMERIS_TYPE":0,"CLASSIFICATION_TYPE":"U","NORAD_CAT_ID":35073,"ELEMENT_SET_NO":999,"REV_AT_EPOCH":68760,"BSTAR":0.00527522,"MEAN_MOTION_DOT":0.00086343,"MEAN_MOTION_DDOT":0}]
